GLOBALSTAR M080         
1 38041U 11080B   26195.54766304 -.00000080  00000+0  13249-3 0  9994
2 38041  52.0069 295.7171 0000308  83.6856 289.7459 12.62257441672349
GLOBALSTAR M082         
1 38042U 11080C   26195.40460559 -.00000070  00000+0  18993-3 0  9993
2 38042  52.0061 251.6564 0000187  93.2988 279.6627 12.62264170673036
GLOBALSTAR M092         
1 38043U 11080D   26195.71483120 -.00000093  00000+0  60415-4 0  9999
2 38043  52.0105 341.1090 0000789 102.5494   0.1646 12.62267766671523
GLOBALSTAR M090         
1 38044U 11080E   26195.54367924 -.00000046  00000+0  32213-3 0  9996
2 38044  52.0106 245.1978 0000434  91.6934  72.3141 12.62269509673167
GLOBALSTAR M086         
1 38045U 11080F   26195.56479733 -.00000081  00000+0  12783-3 0  9990
2 38045  51.9879 245.0174 0001523 110.8409  52.8382 12.62287747673110
GLOBALSTAR M097         
1 39072U 13005A   26195.32302369 -.00000125  00000+0 -11572-3 0  9999
2 39072  52.0026 160.7311 0000413  38.7360 321.3537 12.62271417620333
GLOBALSTAR M093         
1 39073U 13005B   26195.29625367 -.00000118  00000+0 -80175-4 0  9990
2 39073  52.0088 154.1697 0000635  43.3275 316.7642 12.62266341620288
GLOBALSTAR M094         
1 39074U 13005C   26195.85039626 -.00000094  00000+0  54994-4 0  9992
2 39074  52.0007  66.5731 0001085  80.2920 279.8069 12.62264501621966
GLOBALSTAR M096         
1 39075U 13005D   26195.46800344 -.00000110  00000+0 -32525-4 0  9999
2 39075  52.0069 116.5597 0000729  40.4781 319.6140 12.62265708620836
GLOBALSTAR M078         
1 39076U 13005E   26195.44112812 -.00000106  00000+0 -11801-4 0  9993
2 39076  51.9843 200.6145 0000813 336.0789  24.0040 12.62260142619454
GLOBALSTAR M095         
1 39077U 13005F   26195.38862566 -.00000105  00000+0 -63864-5 0  9991
2 39077  52.0054 198.4168 0000436  10.9077 349.1799 12.62264142619309
GLOBALSTAR M087         
1 52888U 22064A   26195.71847679 -.00000102  00000+0  72038-5 0  9995
2 52888  52.0014 338.6352 0000913  85.5772 274.5199 12.62269295194614
